CHECKMATE 3             
1 56169U 23050H   26068.69955309  .00000117  00000+0  93224-4 0  9997
2 56169  81.0056 166.8458 0006819 211.4814 148.5935 13.85138647148343
PRAETORIAN SDA_617      
1 65580U 25203R   26068.54231811  .00000078  00000+0  59995-4 0  9998
2 65580  81.3005 103.0292 0008753 101.6074 258.6065 13.83191555 24911
