[{"OBJECT_NAME":"CHECKMATE 3","OBJECT_ID":"2023-050H","EPOCH":"2026-03-09T16:47:21.387840","MEAN_MOTION":13.85138647,"ECCENTRICITY":0.0006819,"INCLINATION":81.0056,"RA_OF_ASC_NODE":166.8458,"ARG_OF_PERICENTER":211.4814,"MEAN_ANOMALY":148.5935,"EPHEMERIS_TYPE":0,"CLASSIFICATION_TYPE":"U","NORAD_CAT_ID":56169,"ELEMENT_SET_NO":999,"REV_AT_EPOCH":14834,"BSTAR":9.3224216e-5,"MEAN_MOTION_DOT":1.17e-6,"MEAN_MOTION_DDOT":0},{"OBJECT_NAME":"PRAETORIAN SDA_617","OBJECT_ID":"2025-203R","EPOCH":"2026-03-09T13:00:56.284704","MEAN_MOTION":13.83191555,"ECCENTRICITY":0.00087532,"INCLINATION":81.3005,"RA_OF_ASC_NODE":103.0292,"ARG_OF_PERICENTER":101.6074,"MEAN_ANOMALY":258.6065,"EPHEMERIS_TYPE":0,"CLASSIFICATION_TYPE":"U","NORAD_CAT_ID":65580,"ELEMENT_SET_NO":999,"REV_AT_EPOCH":2491,"BSTAR":5.9995099e-5,"MEAN_MOTION_DOT":7.8e-7,"MEAN_MOTION_DDOT":0}]
